[{"OBJECT_NAME":"STARLINK-30259","OBJECT_ID":"2023-115A","EPOCH":"2026-03-09T04:22:22.127520","MEAN_MOTION":15.26733515,"ECCENTRICITY":0.00010295,"INCLINATION":42.9984,"RA_OF_ASC_NODE":4.4614,"ARG_OF_PERICENTER":277.8055,"MEAN_ANOMALY":82.268,"EPHEMERIS_TYPE":0,"CLASSIFICATION_TYPE":"U","NORAD_CAT_ID":57521,"ELEMENT_SET_NO":999,"REV_AT_EPOCH":14349,"BSTAR":-0.00014311949,"MEAN_MOTION_DOT":-4.096e-5,"MEAN_MOTION_DDOT":0},{"OBJECT_NAME":"OBJECT P","OBJECT_ID":"2025-313P","EPOCH":"2026-03-09T21:52:10.906176","MEAN_MOTION":15.22867124,"ECCENTRICITY":0.00138824,"INCLINATION":97.4038,"RA_OF_ASC_NODE":145.2697,"ARG_OF_PERICENTER":354.5628,"MEAN_ANOMALY":5.5456,"EPHEMERIS_TYPE":0,"CLASSIFICATION_TYPE":"U","NORAD_CAT_ID":67261,"ELEMENT_SET_NO":999,"REV_AT_EPOCH":1085,"BSTAR":0.00092209844,"MEAN_MOTION_DOT":0.00021628,"MEAN_MOTION_DDOT":0}]
